{"type": "FeatureCollection", "features": [ {"type": "Feature", "properties": {"norad_id": 39019, "name": "PLEIADES 1B", "group": "resource", "lat": -63.908910101575984, "lon": 87.9520235480034, "alt_km": 705.7199628599701, "timestamp": "2025-12-24T09:46:30.652372+00:00", "meta": {"OBJECT_NAME": "PLEIADES 1B", "OBJECT_ID": "2012-068A", "EPOCH": "2025-12-24T05:08:02.847840", "MEAN_MOTION": 14.58562673, "ECCENTRICITY": 0.0001131, "INCLINATION": 98.1782, "RA_OF_ASC_NODE": 70.6842, "ARG_OF_PERICENTER": 86.8042, "MEAN_ANOMALY": 273.3286, "EPHEMERIS_TYPE": 0, "CLASSIFICATION_TYPE": "U", "NORAD_CAT_ID": 39019, "ELEMENT_SET_NO": 999, "REV_AT_EPOCH": 69534, "BSTAR": 8.6089e-05, "MEAN_MOTION_DOT": 3.55e-06, "MEAN_MOTION_DDOT": 0}, "tle": {"line1": "1 39019U 12068A   25358.21392185  .00000355  00000+0  86089-4 0  9990", "line2": "2 39019  98.1782  70.6842 0001131  86.8042 273.3286 14.58562673695345"}}, "geometry": {"type": "Point", "coordinates": [87.9520235480034, -63.908910101575984]}}, {"type": "Feature", "properties": {"norad_id": 39030, "name": "GOKTURK 2", "group": "resource", "lat": 47.374159490331394, "lon": 27.926595449044633, "alt_km": 639.1195384419634, "timestamp": "2025-12-24T09:46:30.652382+00:00", "meta": {"OBJECT_NAME": "GOKTURK 2", "OBJECT_ID": "2012-073A", "EPOCH": "2025-12-24T04:17:44.635776", "MEAN_MOTION": 14.7530492, "ECCENTRICITY": 0.0001396, "INCLINATION": 97.6883, "RA_OF_ASC_NODE": 199.2696, "ARG_OF_PERICENTER": 107.2476, "MEAN_ANOMALY": 252.8886, "EPHEMERIS_TYPE": 0, "CLASSIFICATION_TYPE": "U", "NORAD_CAT_ID": 39030, "ELEMENT_SET_NO": 999, "REV_AT_EPOCH": 69870, "BSTAR": 5.8451e-05, "MEAN_MOTION_DOT": 3.49e-06, "MEAN_MOTION_DDOT": 0}, "tle": {"line1": "1 39030U 12073A   25358.17898884  .00000349  00000+0  58451-4 0  9996", "line2": "2 39030  97.6883 199.2696 0001396 107.2476 252.8886 14.75304920698700"}}, "geometry": {"type": "Point", "coordinates": [27.926595449044633, 47.374159490331394]}}, {"type": "Feature", "properties": {"norad_id": 39084, "name": "LANDSAT 8", "group": "resource", "lat": 43.71593691251436, "lon": 58.37726678088158, "alt_km": 698.3315165182348, "timestamp": "2025-12-24T09:46:30.652396+00:00", "meta": {"OBJECT_NAME": "LANDSAT 8", "OBJECT_ID": "2013-008A", "EPOCH": "2025-12-24T02:58:49.342080", "MEAN_MOTION": 14.57113636, "ECCENTRICITY": 0.000106, "INCLINATION": 98.2057, "RA_OF_ASC_NODE": 66.0289, "ARG_OF_PERICENTER": 92.9776, "MEAN_ANOMALY": 267.1543, "EPHEMERIS_TYPE": 0, "CLASSIFICATION_TYPE": "U", "NORAD_CAT_ID": 39084, "ELEMENT_SET_NO": 999, "REV_AT_EPOCH": 67240, "BSTAR": 0.00010048, "MEAN_MOTION_DOT": 4.08e-06, "MEAN_MOTION_DDOT": 0}, "tle": {"line1": "1 39084U 13008A   25358.12418220  .00000408  00000+0  10048-3 0  9996", "line2": "2 39084  98.2057  66.0289 0001060  92.9776 267.1543 14.57113636672409"}}, "geometry": {"type": "Point", "coordinates": [58.37726678088158, 43.71593691251436]}}, {"type": "Feature", "properties": {"norad_id": 39086, "name": "SARAL", "group": "resource", "lat": 81.36546685076449, "lon": 99.990293478373, "alt_km": 772.9363789603685, "timestamp": "2025-12-24T09:46:30.652407+00:00", "meta": {"OBJECT_NAME": "SARAL", "OBJECT_ID": "2013-009A", "EPOCH": "2025-12-24T02:39:29.240640", "MEAN_MOTION": 14.32760818, "ECCENTRICITY": 0.0002962, "INCLINATION": 98.5503, "RA_OF_ASC_NODE": 181.8927, "ARG_OF_PERICENTER": 87.3964, "MEAN_ANOMALY": 272.7559, "EPHEMERIS_TYPE": 0, "CLASSIFICATION_TYPE": "U", "NORAD_CAT_ID": 39086, "ELEMENT_SET_NO": 999, "REV_AT_EPOCH": 67053, "BSTAR": 5.9632e-05, "MEAN_MOTION_DOT": 1.19e-06, "MEAN_MOTION_DDOT": 0}, "tle": {"line1": "1 39086U 13009A   25358.11075510  .00000119  00000+0  59632-4 0  9991", "line2": "2 39086  98.5503 181.8927 0002962  87.3964 272.7559 14.32760818670538"}}, "geometry": {"type": "Point", "coordinates": [99.990293478373, 81.36546685076449]}}, {"type": "Feature", "properties": {"norad_id": 39150, "name": "GAOFEN-1", "group": "resource", "lat": -78.39920149570916, "lon": -153.91540186907602, "alt_km": 659.3817038878833, "timestamp": "2025-12-24T09:46:30.652417+00:00", "meta": {"OBJECT_NAME": "GAOFEN-1", "OBJECT_ID": "2013-018A", "EPOCH": "2025-12-24T05:20:33.900576", "MEAN_MOTION": 14.76498296, "ECCENTRICITY": 0.0018486, "INCLINATION": 97.9314, "RA_OF_ASC_NODE": 68.6783, "ARG_OF_PERICENTER": 108.2648, "MEAN_ANOMALY": 252.0575, "EPHEMERIS_TYPE": 0, "CLASSIFICATION_TYPE": "U", "NORAD_CAT_ID": 39150, "ELEMENT_SET_NO": 999, "REV_AT_EPOCH": 68242, "BSTAR": 0.00010602, "MEAN_MOTION_DOT": 6.89e-06, "MEAN_MOTION_DDOT": 0}, "tle": {"line1": "1 39150U 13018A   25358.22261459  .00000689  00000+0  10602-3 0  9999", "line2": "2 39150  97.9314  68.6783 0018486 108.2648 252.0575 14.76498296682421"}}, "geometry": {"type": "Point", "coordinates": [-153.91540186907602, -78.39920149570916]}}, {"type": "Feature", "properties": {"norad_id": 39160, "name": "VNREDSAT 1", "group": "resource", "lat": -17.83469370201759, "lon": -129.2994565484513, "alt_km": 682.6163807050743, "timestamp": "2025-12-24T09:46:30.652427+00:00", "meta": {"OBJECT_NAME": "VNREDSAT 1", "OBJECT_ID": "2013-021B", "EPOCH": "2025-12-24T03:57:24.792192", "MEAN_MOTION": 14.6493862, "ECCENTRICITY": 0.000116, "INCLINATION": 97.9355, "RA_OF_ASC_NODE": 53.0388, "ARG_OF_PERICENTER": 83.6891, "MEAN_ANOMALY": 276.4445, "EPHEMERIS_TYPE": 0, "CLASSIFICATION_TYPE": "U", "NORAD_CAT_ID": 39160, "ELEMENT_SET_NO": 999, "REV_AT_EPOCH": 67466, "BSTAR": 0.00011036, "MEAN_MOTION_DOT": 5.45e-06, "MEAN_MOTION_DDOT": 0}, "tle": {"line1": "1 39160U 13021B   25358.16487028  .00000545  00000+0  11036-3 0  9992", "line2": "2 39160  97.9355  53.0388 0001160  83.6891 276.4445 14.64938620674663"}}, "geometry": {"type": "Point", "coordinates": [-129.2994565484513, -17.83469370201759]}}, {"type": "Feature", "properties": {"norad_id": 39227, "name": "ARIRANG-5 (KOMPSAT-5)", "group": "resource", "lat": 42.91637295360815, "lon": 9.692043094385774, "alt_km": 550.0720018618958, "timestamp": "2025-12-24T09:46:30.652438+00:00", "meta": {"OBJECT_NAME": "ARIRANG-5 (KOMPSAT-5)", "OBJECT_ID": "2013-042A", "EPOCH": "2025-12-24T04:22:54.829920", "MEAN_MOTION": 15.04476771, "ECCENTRICITY": 0.000306, "INCLINATION": 97.6162, "RA_OF_ASC_NODE": 182.3237, "ARG_OF_PERICENTER": 34.6761, "MEAN_ANOMALY": 325.4664, "EPHEMERIS_TYPE": 0, "CLASSIFICATION_TYPE": "U", "NORAD_CAT_ID": 39227, "ELEMENT_SET_NO": 999, "REV_AT_EPOCH": 67754, "BSTAR": 6.3804e-05, "MEAN_MOTION_DOT": 8.32e-06, "MEAN_MOTION_DDOT": 0}, "tle": {"line1": "1 39227U 13042A   25358.18257905  .00000832  00000+0  63804-4 0  9990", "line2": "2 39227  97.6162 182.3237 0003060  34.6761 325.4664 15.04476771677549"}}, "geometry": {"type": "Point", "coordinates": [9.692043094385774, 42.91637295360815]}}, {"type": "Feature", "properties": {"norad_id": 39418, "name": "SKYSAT-A", "group": "resource", "lat": 82.29489483228134, "lon": -25.839550126383543, "alt_km": 527.8206184414967, "timestamp": "2025-12-24T09:46:30.652448+00:00", "meta": {"OBJECT_NAME": "SKYSAT-A", "OBJECT_ID": "2013-066C", "EPOCH": "2025-12-24T03:01:54.975072", "MEAN_MOTION": 15.11683099, "ECCENTRICITY": 0.0021552, "INCLINATION": 97.4086, "RA_OF_ASC_NODE": 47.9884, "ARG_OF_PERICENTER": 195.4454, "MEAN_ANOMALY": 164.6121, "EPHEMERIS_TYPE": 0, "CLASSIFICATION_TYPE": "U", "NORAD_CAT_ID": 39418, "ELEMENT_SET_NO": 999, "REV_AT_EPOCH": 66202, "BSTAR": 0.00020316, "MEAN_MOTION_DOT": 3.412e-05, "MEAN_MOTION_DDOT": 0}, "tle": {"line1": "1 39418U 13066C   25358.12633073  .00003412  00000+0  20316-3 0  9993", "line2": "2 39418  97.4086  47.9884 0021552 195.4454 164.6121 15.11683099662028"}}, "geometry": {"type": "Point", "coordinates": [-25.839550126383543, 82.29489483228134]}}, {"type": "Feature", "properties": {"norad_id": 39419, "name": "DUBAISAT-2", "group": "resource", "lat": 81.22944000374623, "lon": -133.5849740191, "alt_km": 540.3457384238545, "timestamp": "2025-12-24T09:46:30.652458+00:00", "meta": {"OBJECT_NAME": "DUBAISAT-2", "OBJECT_ID": "2013-066D", "EPOCH": "2025-12-24T04:34:50.378304", "MEAN_MOTION": 15.08461979, "ECCENTRICITY": 0.0009941, "INCLINATION": 97.4458, "RA_OF_ASC_NODE": 348.2459, "ARG_OF_PERICENTER": 276.6439, "MEAN_ANOMALY": 83.3658, "EPHEMERIS_TYPE": 0, "CLASSIFICATION_TYPE": "U", "NORAD_CAT_ID": 39419, "ELEMENT_SET_NO": 999, "REV_AT_EPOCH": 65999, "BSTAR": 0.00034367, "MEAN_MOTION_DOT": 5.299e-05, "MEAN_MOTION_DDOT": 0}, "tle": {"line1": "1 39419U 13066D   25358.19086086  .00005299  00000+0  34367-3 0  9993", "line2": "2 39419  97.4458 348.2459 0009941 276.6439  83.3658 15.08461979659991"}}, "geometry": {"type": "Point", "coordinates": [-133.5849740191, 81.22944000374623]}}, {"type": "Feature", "properties": {"norad_id": 39574, "name": "GPM-CORE", "group": "resource", "lat": -14.914498877424032, "lon": 166.46043860268284, "alt_km": 436.6080718570438, "timestamp": "2025-12-24T09:46:30.652468+00:00", "meta": {"OBJECT_NAME": "GPM-CORE", "OBJECT_ID": "2014-009C", "EPOCH": "2025-12-24T02:04:37.373952", "MEAN_MOTION": 15.44634912, "ECCENTRICITY": 0.0009161, "INCLINATION": 64.9724, "RA_OF_ASC_NODE": 174.683, "ARG_OF_PERICENTER": 250.1064, "MEAN_ANOMALY": 109.9089, "EPHEMERIS_TYPE": 0, "CLASSIFICATION_TYPE": "U", "NORAD_CAT_ID": 39574, "ELEMENT_SET_NO": 999, "REV_AT_EPOCH": 67076, "BSTAR": 0.00018893, "MEAN_MOTION_DOT": 8.614e-05, "MEAN_MOTION_DDOT": 0}, "tle": {"line1": "1 39574U 14009C   25358.08654368  .00008614  00000+0  18893-3 0  9995", "line2": "2 39574  64.9724 174.6830 0009161 250.1064 109.9089 15.44634912670767"}}, "geometry": {"type": "Point", "coordinates": [166.46043860268284, -14.914498877424032]}}]}